{
  "type": "FeatureCollection",
  "features": [
    {
      "type": "Feature",
      "properties": {
        "norad_id": 26766,
        "name": "INTELSAT 10 (IS-10)",
        "group": "intelsat",
        "lat": -8.545827660453849,
        "lon": -36.81227362130236,
        "alt_km": 36100.11320711074,
        "timestamp": "2025-12-07T05:38:09.575445+00:00",
        "meta_object_name": "INTELSAT 10 (IS-10)",
        "meta_object_id": "2001-019A",
        "meta_epoch": "2025-12-06T11:29:51.700704",
        "meta_mean_motion": 0.99078798,
        "meta_eccentricity": 0.00078511,
        "meta_inclination": 8.6144,
        "meta_ra_of_asc_node": 61.2183,
        "meta_arg_of_pericenter": 220.2225,
        "meta_mean_anomaly": 132.1998,
        "meta_ephemeris_type": 0,
        "meta_classification_type": "U",
        "meta_norad_cat_id": 26766,
        "meta_element_set_no": 999,
        "meta_rev_at_epoch": 4366,
        "meta_bstar": 0,
        "meta_mean_motion_dot": -2.37e-06,
        "meta_mean_motion_ddot": 0,
        "tle_line1": "1 26766U 01019A   25340.47907061 -.00000237  00000+0  00000+0 0  9997",
        "tle_line2": "2 26766   8.6144  61.2183 0007851 220.2225 132.1998  0.99078798 43668"
      },
      "geometry": {
        "type": "Point",
        "coordinates": [
          -36.81227362130236,
          -8.545827660453849
        ]
      }
    },
    {
      "type": "Feature",
      "properties": {
        "norad_id": 26900,
        "name": "INTELSAT 902 (IS-902)",
        "group": "intelsat",
        "lat": 3.3658893291690455,
        "lon": 110.47250228199016,
        "alt_km": 35800.408077102686,
        "timestamp": "2025-12-07T05:38:09.575469+00:00",
        "meta_object_name": "INTELSAT 902 (IS-902)",
        "meta_object_id": "2001-039A",
        "meta_epoch": "2025-12-01T16:59:59.311968",
        "meta_mean_motion": 1.00270327,
        "meta_eccentricity": 0.00043097,
        "meta_inclination": 5.6187,
        "meta_ra_of_asc_node": 74.2002,
        "meta_arg_of_pericenter": 175.119,
        "meta_mean_anomaly": 26.3816,
        "meta_ephemeris_type": 0,
        "meta_classification_type": "U",
        "meta_norad_cat_id": 26900,
        "meta_element_set_no": 999,
        "meta_rev_at_epoch": 8871,
        "meta_bstar": 0,
        "meta_mean_motion_dot": -2.63e-06,
        "meta_mean_motion_ddot": 0,
        "tle_line1": "1 26900U 01039A   25335.70832537 -.00000263  00000+0  00000+0 0  9993",
        "tle_line2": "2 26900   5.6187  74.2002 0004309 175.1190  26.3816  1.00270327 88713"
      },
      "geometry": {
        "type": "Point",
        "coordinates": [
          110.47250228199016,
          3.3658893291690455
        ]
      }
    },
    {
      "type": "Feature",
      "properties": {
        "norad_id": 27380,
        "name": "INTELSAT 904 (IS-904)",
        "group": "intelsat",
        "lat": 5.461500233628151,
        "lon": 129.10164753174556,
        "alt_km": 35792.78420157035,
        "timestamp": "2025-12-07T05:38:09.575485+00:00",
        "meta_object_name": "INTELSAT 904 (IS-904)",
        "meta_object_id": "2002-007A",
        "meta_epoch": "2025-12-06T11:48:15.274944",
        "meta_mean_motion": 1.00268726,
        "meta_eccentricity": 0.00017301,
        "meta_inclination": 6.4388,
        "meta_ra_of_asc_node": 71.5029,
        "meta_arg_of_pericenter": 210.4172,
        "meta_mean_anomaly": 299.1554,
        "meta_ephemeris_type": 0,
        "meta_classification_type": "U",
        "meta_norad_cat_id": 27380,
        "meta_element_set_no": 999,
        "meta_rev_at_epoch": 4983,
        "meta_bstar": 0,
        "meta_mean_motion_dot": -2.22e-06,
        "meta_mean_motion_ddot": 0,
        "tle_line1": "1 27380U 02007A   25340.49184346 -.00000222  00000+0  00000+0 0  9997",
        "tle_line2": "2 27380   6.4388  71.5029 0001730 210.4172 299.1554  1.00268726 49834"
      },
      "geometry": {
        "type": "Point",
        "coordinates": [
          129.10164753174556,
          5.461500233628151
        ]
      }
    },
    {
      "type": "Feature",
      "properties": {
        "norad_id": 27426,
        "name": "DIRECTV 5 (TEMPO 1)",
        "group": "intelsat",
        "lat": -1.9685089951828711,
        "lon": 50.77435085367817,
        "alt_km": 35798.725404214245,
        "timestamp": "2025-12-07T05:38:09.575499+00:00",
        "meta_object_name": "DIRECTV 5 (TEMPO 1)",
        "meta_object_id": "2002-023A",
        "meta_epoch": "2025-12-06T10:50:51.492768",
        "meta_mean_motion": 1.00271507,
        "meta_eccentricity": 0.00039111,
        "meta_inclination": 4.3854,
        "meta_ra_of_asc_node": 77.7251,
        "meta_arg_of_pericenter": 195.0689,
        "meta_mean_anomaly": 215.2902,
        "meta_ephemeris_type": 0,
        "meta_classification_type": "U",
        "meta_norad_cat_id": 27426,
        "meta_element_set_no": 999,
        "meta_rev_at_epoch": 8619,
        "meta_bstar": 0,
        "meta_mean_motion_dot": -5.2e-07,
        "meta_mean_motion_ddot": 0,
        "tle_line1": "1 27426U 02023A   25340.45198487 -.00000052  00000+0  00000+0 0  9994",
        "tle_line2": "2 27426   4.3854  77.7251 0003911 195.0689 215.2902  1.00271507 86196"
      },
      "geometry": {
        "type": "Point",
        "coordinates": [
          50.77435085367817,
          -1.9685089951828711
        ]
      }
    },
    {
      "type": "Feature",
      "properties": {
        "norad_id": 27438,
        "name": "INTELSAT 905 (IS-905)",
        "group": "intelsat",
        "lat": -4.674092780293203,
        "lon": 23.85206431411456,
        "alt_km": 35792.975829278126,
        "timestamp": "2025-12-07T05:38:09.575512+00:00",
        "meta_object_name": "INTELSAT 905 (IS-905)",
        "meta_object_id": "2002-027A",
        "meta_epoch": "2025-12-03T09:40:44.149728",
        "meta_mean_motion": 1.00273288,
        "meta_eccentricity": 0.00031296,
        "meta_inclination": 6.2606,
        "meta_ra_of_asc_node": 72.1621,
        "meta_arg_of_pericenter": 189.1417,
        "meta_mean_anomaly": 179.1858,
        "meta_ephemeris_type": 0,
        "meta_classification_type": "U",
        "meta_norad_cat_id": 27438,
        "meta_element_set_no": 999,
        "meta_rev_at_epoch": 4940,
        "meta_bstar": 0,
        "meta_mean_motion_dot": 1.09e-06,
        "meta_mean_motion_ddot": 0,
        "tle_line1": "1 27438U 02027A   25337.40328877  .00000109  00000+0  00000+0 0  9992",
        "tle_line2": "2 27438   6.2606  72.1621 0003129 189.1417 179.1858  1.00273288 49408"
      },
      "geometry": {
        "type": "Point",
        "coordinates": [
          23.85206431411456,
          -4.674092780293203
        ]
      }
    },
    {
      "type": "Feature",
      "properties": {
        "norad_id": 27445,
        "name": "GALAXY 3C (G-3C)",
        "group": "intelsat",
        "lat": -0.7959465196794143,
        "lon": 65.94285855087378,
        "alt_km": 35788.860270387646,
        "timestamp": "2025-12-07T05:38:09.575524+00:00",
        "meta_object_name": "GALAXY 3C (G-3C)",
        "meta_object_id": "2002-030A",
        "meta_epoch": "2025-12-06T10:58:45.928128",
        "meta_mean_motion": 1.00270555,
        "meta_eccentricity": 0.00012064,
        "meta_inclination": 3.2479,
        "meta_ra_of_asc_node": 80.568,
        "meta_arg_of_pericenter": 102.1623,
        "meta_mean_anomaly": 322.5966,
        "meta_ephemeris_type": 0,
        "meta_classification_type": "U",
        "meta_norad_cat_id": 27445,
        "meta_element_set_no": 999,
        "meta_rev_at_epoch": 4456,
        "meta_bstar": 0,
        "meta_mean_motion_dot": -1.47e-06,
        "meta_mean_motion_ddot": 0,
        "tle_line1": "1 27445U 02030A   25340.45747602 -.00000147  00000+0  00000+0 0  9997",
        "tle_line2": "2 27445   3.2479  80.5680 0001206 102.1623 322.5966  1.00270555 44567"
      },
      "geometry": {
        "type": "Point",
        "coordinates": [
          65.94285855087378,
          -0.7959465196794143
        ]
      }
    },
    {
      "type": "Feature",
      "properties": {
        "norad_id": 27513,
        "name": "INTELSAT 906 (IS-906)",
        "group": "intelsat",
        "lat": 2.6662244323167616,
        "lon": -134.99591461380155,
        "alt_km": 35765.955143765,
        "timestamp": "2025-12-07T05:38:09.575537+00:00",
        "meta_object_name": "INTELSAT 906 (IS-906)",
        "meta_object_id": "2002-041A",
        "meta_epoch": "2025-12-06T08:50:02.344416",
        "meta_mean_motion": 1.00270373,
        "meta_eccentricity": 0.00060363,
        "meta_inclination": 5.3127,
        "meta_ra_of_asc_node": 75.3075,
        "meta_arg_of_pericenter": 187.7214,
        "meta_mean_anomaly": 9.0301,
        "meta_ephemeris_type": 0,
        "meta_classification_type": "U",
        "meta_norad_cat_id": 27513,
        "meta_element_set_no": 999,
        "meta_rev_at_epoch": 8509,
        "meta_bstar": 0,
        "meta_mean_motion_dot": 1.8e-07,
        "meta_mean_motion_ddot": 0,
        "tle_line1": "1 27513U 02041A   25340.36808269  .00000018  00000+0  00000+0 0  9998",
        "tle_line2": "2 27513   5.3127  75.3075 0006036 187.7214   9.0301  1.00270373 85098"
      },
      "geometry": {
        "type": "Point",
        "coordinates": [
          -134.99591461380155,
          2.6662244323167616
        ]
      }
    }
  ]
}